[{"OBJECT_NAME":"STARLINK-36706","OBJECT_ID":"2026-022K","EPOCH":"2026-03-09T22:00:01.999584","MEAN_MOTION":15.67261304,"ECCENTRICITY":0.00015605,"INCLINATION":97.285,"RA_OF_ASC_NODE":102.9026,"ARG_OF_PERICENTER":67.2602,"MEAN_ANOMALY":325.5954,"EPHEMERIS_TYPE":0,"CLASSIFICATION_TYPE":"U","NORAD_CAT_ID":67657,"ELEMENT_SET_NO":999,"REV_AT_EPOCH":608,"BSTAR":-0.020198201,"MEAN_MOTION_DOT":-0.019182,"MEAN_MOTION_DDOT":0},{"OBJECT_NAME":"FIREFLY ALPHA R\/B","OBJECT_ID":"2024-125H","EPOCH":"2026-03-09T22:20:21.817248","MEAN_MOTION":15.57788305,"ECCENTRICITY":0.00251129,"INCLINATION":97.2295,"RA_OF_ASC_NODE":290.9164,"ARG_OF_PERICENTER":188.9854,"MEAN_ANOMALY":171.0957,"EPHEMERIS_TYPE":0,"CLASSIFICATION_TYPE":"U","NORAD_CAT_ID":60210,"ELEMENT_SET_NO":999,"REV_AT_EPOCH":9448,"BSTAR":0.0005026464,"MEAN_MOTION_DOT":0.00037909,"MEAN_MOTION_DDOT":0}]
